NORAD_CAT_ID,OBJECT_NAME,OBJECT_TYPE,EPOCH,MEAN_MOTION,ECCENTRICITY,INCLINATION,RA_OF_ASC_NODE,ARG_OF_PERICENTER,MEAN_ANOMALY,BSTAR,MEAN_MOTION_DOT,MEAN_MOTION_DDOT,TLE_LINE0,TLE_LINE1,TLE_LINE2,SEMIMAJOR_AXIS,PERIOD,APOGEE,PERIGEE,DECAYED
52558.0,STARLINK-3954,PAYLOAD,2022-07-04 22:00:00,15.6056426,0.0001975,53.2175,35.9594,29.1807,72.8922,-0.013903,-0.0106466,0.0,0 STARLINK-3954,1 52558U 22051AB  22185.91667824 -.01064660  00000-0 -13903-1 0  9998,2 52558  53.2175  35.9594 0001975  29.1807  72.8922 15.60564260  1303,6764.163000000001,92.274,387.364,384.692,0.0
52558.0,STARLINK-3954,PAYLOAD,2022-07-05 08:00:01,15.59615682,0.0001414,53.2174,33.9306,44.2233,239.3106,-0.014446,-0.01066181,0.0,0 STARLINK-3954,1 52558U 22051AB  22186.33334491 -.01066181  00000-0 -14446-1 0  9999,2 52558  53.2174  33.9306 0001414  44.2233 239.3106 15.59615682  8786,6766.906,92.33,389.727,387.814,0.0
52558.0,STARLINK-3954,PAYLOAD,2022-07-05 14:00:01,15.5904419,0.0001587,53.2174,32.7151,42.4151,205.3106,-0.014695,-0.01061577,0.0,0 STARLINK-3954,1 52558U 22051AB  22186.58334491 -.01061577  00000-0 -14695-1 0  9996,2 52558  53.2174  32.7151 0001587  42.4151 205.3106 15.59044190  1305,6768.559,92.364,391.49800000000016,389.35,0.0
52558.0,STARLINK-3954,PAYLOAD,2022-07-05 22:00:00,15.58286575,0.0001643,53.2172,31.0989,34.5798,284.6012,-0.015189,-0.01065659,0.0,0 STARLINK-3954,1 52558U 22051AB  22186.91667824 -.01065659  00000-0 -15189-1 0  9996,2 52558  53.2172  31.0989 0001643  34.5798 284.6012 15.58286575  1306,6770.753000000002,92.409,393.73,391.505,0.0
52558.0,STARLINK-3954,PAYLOAD,2022-07-06 06:00:00,15.57526064,0.0001455,53.2174,29.4811,37.7992,351.9272,-0.015605,-0.0106387,0.0,0 STARLINK-3954,1 52558U 22051AB  22187.25001157 -.01063870  00000-0 -15605-1 0  9991,2 52558  53.2174  29.4811 0001455  37.7992 351.9272 15.57526064  8936,6772.956999999999,92.454,395.807,393.836,0.0
52558.0,STARLINK-3954,PAYLOAD,2022-07-06 14:00:01,15.56764291,0.0001793,53.2175,27.8656,33.1669,66.1919,-0.015986,-0.01059562,0.0,0 STARLINK-3954,1 52558U 22051AB  22187.58334491 -.01059562  00000-0 -15986-1 0  9992,2 52558  53.2175  27.8656 0001793  33.1669  66.1919 15.56764291  1304,6775.166,92.5,398.246,395.816,0.0
52558.0,STARLINK-3954,PAYLOAD,2022-07-06 19:44:22,15.57930803,0.0001252,53.2158,26.7669,115.1064,245.008,-0.0058766,-0.00424776,0.0,0 STARLINK-3954,1 52558U 22051AB  22187.82248166 -.00424776  00000-0 -58766-2 0  9998,2 52558  53.2158  26.7669 0001252 115.1064 245.0080 15.57930803  9026,6771.784000000002,92.43,394.496,392.801,0.0
52558.0,STARLINK-3954,PAYLOAD,2022-07-07 06:00:02,15.5524887,0.0001536,53.2175,24.6423,45.9155,190.0317,-0.017022,-0.01065524,0.0,0 STARLINK-3954,1 52558U 22051AB  22188.25002315 -.01065524  00000-0 -17022-1 0  9992,2 52558  53.2175  24.6423 0001536  45.9155 190.0317 15.55248870  9088,6779.566,92.59,402.473,400.39,0.0
52558.0,STARLINK-3954,PAYLOAD,2022-07-07 14:00:01,15.54487608,0.0001673,53.2176,23.0327,34.2962,268.48,-0.017432,-0.01061345,0.0,0 STARLINK-3954,1 52558U 22051AB  22188.58334491 -.01061345  00000-0 -17432-1 0  9993,2 52558  53.2176  23.0327 0001673  34.2962 268.4800 15.54487608  1301,6781.779,92.635,404.779,402.51,0.0
52558.0,STARLINK-3954,PAYLOAD,2022-07-07 22:00:00,15.53728501,0.000183,53.2175,21.4273,28.3548,340.4012,-0.017953,-0.01062874,0.0,0 STARLINK-3954,1 52558U 22051AB  22188.91667824 -.01062874  00000-0 -17953-1 0  9995,2 52558  53.2175  21.4273 0001830  28.3548 340.4012 15.53728501  1306,6783.988,92.68,407.095,404.612,0.0
52558.0,STARLINK-3954,PAYLOAD,2022-07-08 06:00:02,15.52967488,0.0001812,53.2175,19.8202,29.6516,44.2388,-0.018408,-0.01060166,0.0,0 STARLINK-3954,1 52558U 22051AB  22189.25002315 -.01060166  00000-0 -18408-1 0  9999,2 52558  53.2175  19.8202 0001812  29.6516  44.2388 15.52967488  9242,6786.204000000002,92.726,409.299,406.84,0.0
52558.0,STARLINK-3954,PAYLOAD,2022-07-08 14:00:01,15.52206501,0.0001931,53.2176,18.2163,32.2792,105.7025,-0.018865,-0.01057174,0.0,0 STARLINK-3954,1 52558U 22051AB  22189.58334491 -.01057174  00000-0 -18865-1 0  9990,2 52558  53.2176  18.2163 0001931  32.2792 105.7025 15.52206501  1302,6788.422,92.771,411.598,408.976,0.0
52558.0,STARLINK-3954,PAYLOAD,2022-07-08 22:00:01,15.51446354,0.0002101,53.2175,16.6161,30.1176,171.1706,-0.01936,-0.0105571,0.0,0 STARLINK-3954,1 52558U 22051AB  22189.91668981 -.01055710  00000-0 -19360-1 0  9996,2 52558  53.2175  16.6161 0002101  30.1176 171.1706 15.51446354  1308,6790.639,92.817,413.931,411.078,0.0
52558.0,STARLINK-3954,PAYLOAD,2022-07-09 06:00:00,15.50691162,0.0001443,53.2175,15.0147,48.7988,214.7544,-0.020048,-0.01063013,0.0,0 STARLINK-3954,1 52558U 22051AB  22190.25001157 -.01063013  00000-0 -20048-1 0  9991,2 52558  53.2175  15.0147 0001443  48.7988 214.7544 15.50691162  9398,6792.844,92.862,415.689,413.729,0.0
52558.0,STARLINK-3954,PAYLOAD,2022-07-09 14:00:01,15.49930385,0.0001395,53.2174,13.4162,45.4745,279.4964,-0.020539,-0.01060108,0.0,0 STARLINK-3954,1 52558U 22051AB  22190.58334491 -.01060108  00000-0 -20539-1 0  9994,2 52558  53.2174  13.4162 0001395  45.4745 279.4964 15.49930385  1305,6795.066999999999,92.907,417.879,415.984,0.0
52558.0,STARLINK-3954,PAYLOAD,2022-07-09 20:00:01,15.49360002,0.0001474,53.2173,12.2206,49.4661,230.9682,-0.020938,-0.01059121,0.0,0 STARLINK-3954,1 52558U 22051AB  22190.83334491 -.01059121  00000-0 -20938-1 0  9998,2 52558  53.2173  12.2206 0001474  49.4661 230.9682 15.49360002  1301,6796.734,92.942,419.601,417.597,0.0
52558.0,STARLINK-3954,PAYLOAD,2022-07-10 06:00:00,15.48409525,0.0001513,53.2175,10.2254,41.1997,43.8691,-0.021616,-0.01057448,0.0,0 STARLINK-3954,1 52558U 22051AB  22191.25001157 -.01057448  00000-0 -21616-1 0  9999,2 52558  53.2175  10.2254 0001513  41.1997  43.8691 15.48409525  9558,6799.515,92.999,422.409,420.351,0.0
52558.0,STARLINK-3954,PAYLOAD,2022-07-10 14:00:01,15.47649558,0.0001769,53.2176,8.6326,38.8243,104.9239,-0.022173,-0.01056295,0.0,0 STARLINK-3954,1 52558U 22051AB  22191.58334491 -.01056295  00000-0 -22173-1 0  9993,2 52558  53.2176   8.6326 0001769  38.8243 104.9239 15.47649558  1303,6801.741,93.044,424.809,422.403,0.0
52558.0,STARLINK-3954,PAYLOAD,2022-07-10 22:00:00,15.46887062,0.0001535,53.2175,7.0433,51.737,149.7781,-0.022645,-0.01050875,0.0,0 STARLINK-3954,1 52558U 22051AB  22191.91667824 -.01050875  00000-0 -22645-1 0  9991,2 52558  53.2175   7.0433 0001535  51.7370 149.7781 15.46887062  1302,6803.976,93.09,426.885,424.797,0.0
52558.0,STARLINK-3954,PAYLOAD,2022-07-11 06:00:00,15.46131812,0.0001549,53.2176,5.4523,44.4369,213.932,-0.023418,-0.0105788,0.0,0 STARLINK-3954,1 52558U 22051AB  22192.25001157 -.01057880  00000-0 -23418-1 0  9992,2 52558  53.2176   5.4523 0001549  44.4369 213.9320 15.46131812  9707,6806.191,93.136,429.111,427.002,0.0
52558.0,STARLINK-3954,PAYLOAD,2022-07-11 14:00:01,15.45372746,0.0001631,53.2176,3.8654,36.5333,277.7765,-0.02405,-0.01058265,0.0,0 STARLINK-3954,1 52558U 22051AB  22192.58334491 -.01058265  00000-0 -24050-1 0  9999,2 52558  53.2176   3.8654 0001631  36.5333 277.7765 15.45372746  1300,6808.42,93.181,431.396,429.175,0.0
52558.0,STARLINK-3954,PAYLOAD,2022-07-11 22:00:00,15.44611111,0.0001392,53.2174,2.2813,44.508,324.8306,-0.024594,-0.01054526,0.0,0 STARLINK-3954,1 52558U 22051AB  22192.91667824 -.01054526  00000-0 -24594-1 0  9994,2 52558  53.2174   2.2813 0001392  44.5080 324.8306 15.44611111  1306,6810.658,93.227,433.471,431.575,0.0
52558.0,STARLINK-3954,PAYLOAD,2022-07-12 06:00:00,15.43851541,0.0001587,53.2175,0.6957,36.4844,26.9718,-0.025255,-0.01055087,0.0,0 STARLINK-3954,1 52558U 22051AB  22193.25001157 -.01055087  00000-0 -25255-1 0  9991,2 52558  53.2175   0.6957 0001587  36.4844  26.9718 15.43851541  9860,6812.892,93.273,435.838,433.675,0.0
52558.0,STARLINK-3954,PAYLOAD,2022-07-12 14:00:01,15.43093119,0.0001865,53.2176,359.1144,34.1863,82.4725,-0.025951,-0.01056476,0.0,0 STARLINK-3954,1 52558U 22051AB  22193.58334491 -.01056476  00000-0 -25951-1 0  9993,2 52558  53.2176 359.1144 0001865  34.1863  82.4725 15.43093119  1301,6815.124,93.319,438.26,435.718,0.0
52558.0,STARLINK-3954,PAYLOAD,2022-07-12 22:00:00,15.4232887,0.0001604,53.2172,357.5357,48.3882,120.5622,-0.026397,-0.01047965,0.0,0 STARLINK-3954,1 52558U 22051AB  22193.91667824 -.01047965  00000-0 -26397-1 0  9997,2 52558  53.2172 357.5357 0001604  48.3882 120.5622 15.42328870  1308,6817.375,93.365,440.333,438.146,0.0
52558.0,STARLINK-3954,PAYLOAD,2022-07-13 06:00:00,15.41572368,0.0001621,53.2174,355.9554,44.8285,175.5002,-0.027216,-0.0106755,0.0,0 STARLINK-3954,1 52558U 22051AB  22194.25001157 -.01067550  00000-0 -27216-1 0  9999,2 52558  53.2174 355.9554 0001621  44.8285 175.5002 15.41572368 10010,6819.605,93.411,442.576,440.365,0.0
52558.0,STARLINK-3954,PAYLOAD,2022-07-13 14:00:01,15.40813833,0.0001603,53.2174,354.3798,44.2332,226.56,-0.027956,-0.01068962,0.0,0 STARLINK-3954,1 52558U 22051AB  22194.58334491 -.01068962  00000-0 -27956-1 0  9994,2 52558  53.2174 354.3798 0001603  44.2332 226.5600 15.40813833  1307,6821.843000000003,93.457,444.802,442.615,0.0
52558.0,STARLINK-3954,PAYLOAD,2022-07-13 22:00:00,15.40053559,0.0001592,53.2171,352.8064,37.7937,282.5517,-0.028614,-0.01066944,0.0,0 STARLINK-3954,1 52558U 22051AB  22194.91667824 -.01066944  00000-0 -28614-1 0  9990,2 52558  53.2171 352.8064 0001592  37.7937 282.5517 15.40053559  1308,6824.0880000000025,93.503,447.039,444.867,0.0
52558.0,STARLINK-3954,PAYLOAD,2022-07-14 08:00:01,15.39105043,0.0001701,53.2172,350.8384,38.6346,72.37,-0.029622,-0.01070135,0.0,0 STARLINK-3954,1 52558U 22051AB  22195.33334491 -.01070135  00000-0 -29622-1 0  9995,2 52558  53.2172 350.8384 0001701  38.6346  72.3700 15.39105043 10187,6826.891,93.561,449.918,447.595,0.0
52558.0,STARLINK-3954,PAYLOAD,2022-07-14 14:00:01,15.38536363,0.0001739,53.2174,349.6613,34.2717,22.4417,-0.030203,-0.01070825,0.0,0 STARLINK-3954,1 52558U 22051AB  22195.58334491 -.01070825  00000-0 -30203-1 0  9995,2 52558  53.2174 349.6613 0001739  34.2717  22.4417 15.38536363  1302,6828.574000000001,93.595,451.626,449.251,0.0
